{
  "type": "FeatureCollection",
  "features": [
    {
      "type": "Feature",
      "properties": {
        "norad_id": 66454,
        "name": "VIASAT-3 F2",
        "group": "last-30-days",
        "lat": 5.3019529949915265,
        "lon": 8.422503775701438,
        "alt_km": 19890.49747253581,
        "timestamp": "2025-12-13T03:42:10.035585+00:00",
        "meta_object_name": "VIASAT-3 F2",
        "meta_object_id": "2025-261A",
        "meta_epoch": "2025-12-08T12:11:15.383616",
        "meta_mean_motion": 2.19142646,
        "meta_eccentricity": 0.22792154,
        "meta_inclination": 5.457,
        "meta_ra_of_asc_node": 292.6501,
        "meta_arg_of_pericenter": 190.5469,
        "meta_mean_anomaly": 204.5187,
        "meta_ephemeris_type": 0,
        "meta_classification_type": "U",
        "meta_norad_cat_id": 66454,
        "meta_element_set_no": 999,
        "meta_rev_at_epoch": 55,
        "meta_bstar": 0,
        "meta_mean_motion_dot": -8.1e-07,
        "meta_mean_motion_ddot": 0,
        "tle_line1": "1 66454U 25261A   25342.50781694 -.00000081  00000+0  00000+0 0  9995",
        "tle_line2": "2 66454   5.4570 292.6501 2279215 190.5469 204.5187  2.19142646   557"
      },
      "geometry": {
        "type": "Point",
        "coordinates": [
          8.422503775701438,
          5.3019529949915265
        ]
      }
    },
    {
      "type": "Feature",
      "properties": {
        "norad_id": 66455,
        "name": "ATLAS 5 CENTAUR R/B",
        "group": "last-30-days",
        "lat": -3.0558369312457425,
        "lon": -98.07314631652716,
        "alt_km": 21995.323231609742,
        "timestamp": "2025-12-13T03:42:10.035649+00:00",
        "meta_object_name": "ATLAS 5 CENTAUR R/B",
        "meta_object_id": "2025-261B",
        "meta_epoch": "2025-12-12T03:16:30.695232",
        "meta_mean_motion": 2.28259922,
        "meta_eccentricity": 0.23294627,
        "meta_inclination": 6.1465,
        "meta_ra_of_asc_node": 291.6766,
        "meta_arg_of_pericenter": 186.3629,
        "meta_mean_anomaly": 8.9933,
        "meta_ephemeris_type": 0,
        "meta_classification_type": "U",
        "meta_norad_cat_id": 66455,
        "meta_element_set_no": 999,
        "meta_rev_at_epoch": 63,
        "meta_bstar": 0,
        "meta_mean_motion_dot": -7.7e-07,
        "meta_mean_motion_ddot": 0,
        "tle_line1": "1 66455U 25261B   25346.13646638 -.00000077  00000+0  00000+0 0  9992",
        "tle_line2": "2 66455   6.1465 291.6766 2329462 186.3629   8.9933  2.28259922   632"
      },
      "geometry": {
        "type": "Point",
        "coordinates": [
          -98.07314631652716,
          -3.0558369312457425
        ]
      }
    },
    {
      "type": "Feature",
      "properties": {
        "norad_id": 66456,
        "name": "STARLINK-35643",
        "group": "last-30-days",
        "lat": -38.77526290356941,
        "lon": 9.675385789861433,
        "alt_km": 445.9422216849616,
        "timestamp": "2025-12-13T03:42:10.035669+00:00",
        "meta_object_name": "STARLINK-35643",
        "meta_object_id": "2025-262A",
        "meta_epoch": "2025-12-12T06:12:35.357184",
        "meta_mean_motion": 15.40706793,
        "meta_eccentricity": 0.00014022,
        "meta_inclination": 43.0003,
        "meta_ra_of_asc_node": 74.3849,
        "meta_arg_of_pericenter": 280.3575,
        "meta_mean_anomaly": 79.7124,
        "meta_ephemeris_type": 0,
        "meta_classification_type": "U",
        "meta_norad_cat_id": 66456,
        "meta_element_set_no": 999,
        "meta_rev_at_epoch": 548,
        "meta_bstar": 0.0015011606,
        "meta_mean_motion_dot": 0.00062937,
        "meta_mean_motion_ddot": 0,
        "tle_line1": "1 66456U 25262A   25346.25874256  .00062937  00000+0  15012-2 0  9990",
        "tle_line2": "2 66456  43.0003  74.3849 0001402 280.3575  79.7124 15.40706793  5480"
      },
      "geometry": {
        "type": "Point",
        "coordinates": [
          9.675385789861433,
          -38.77526290356941
        ]
      }
    },
    {
      "type": "Feature",
      "properties": {
        "norad_id": 66457,
        "name": "STARLINK-35466",
        "group": "last-30-days",
        "lat": -26.979173928500746,
        "lon": 36.046761191940824,
        "alt_km": 445.76418041009674,
        "timestamp": "2025-12-13T03:42:10.035682+00:00",
        "meta_object_name": "STARLINK-35466",
        "meta_object_id": "2025-262B",
        "meta_epoch": "2025-12-12T06:06:08.305056",
        "meta_mean_motion": 15.40713277,
        "meta_eccentricity": 0.00018007,
        "meta_inclination": 42.9996,
        "meta_ra_of_asc_node": 74.3491,
        "meta_arg_of_pericenter": 230.6233,
        "meta_mean_anomaly": 129.4465,
        "meta_ephemeris_type": 0,
        "meta_classification_type": "U",
        "meta_norad_cat_id": 66457,
        "meta_element_set_no": 999,
        "meta_rev_at_epoch": 548,
        "meta_bstar": 0.0024924799,
        "meta_mean_motion_dot": 0.00105309,
        "meta_mean_motion_ddot": 0,
        "tle_line1": "1 66457U 25262B   25346.25426279  .00105309  00000+0  24925-2 0  9993",
        "tle_line2": "2 66457  42.9996  74.3491 0001800 230.6233 129.4465 15.40713277  5480"
      },
      "geometry": {
        "type": "Point",
        "coordinates": [
          36.046761191940824,
          -26.979173928500746
        ]
      }
    },
    {
      "type": "Feature",
      "properties": {
        "norad_id": 66458,
        "name": "STARLINK-35684",
        "group": "last-30-days",
        "lat": -33.54763509565687,
        "lon": 23.828696395902828,
        "alt_km": 445.8842757011698,
        "timestamp": "2025-12-13T03:42:10.035694+00:00",
        "meta_object_name": "STARLINK-35684",
        "meta_object_id": "2025-262C",
        "meta_epoch": "2025-12-12T06:09:21.605184",
        "meta_mean_motion": 15.4071892,
        "meta_eccentricity": 0.00017107,
        "meta_inclination": 43,
        "meta_ra_of_asc_node": 74.3673,
        "meta_arg_of_pericenter": 237.7719,
        "meta_mean_anomaly": 122.2972,
        "meta_ephemeris_type": 0,
        "meta_classification_type": "U",
        "meta_norad_cat_id": 66458,
        "meta_element_set_no": 999,
        "meta_rev_at_epoch": 548,
        "meta_bstar": 0.0021508247,
        "meta_mean_motion_dot": 0.00090674,
        "meta_mean_motion_ddot": 0,
        "tle_line1": "1 66458U 25262C   25346.25650006  .00090674  00000+0  21508-2 0  9993",
        "tle_line2": "2 66458  43.0000  74.3673 0001710 237.7719 122.2972 15.40718920  5482"
      },
      "geometry": {
        "type": "Point",
        "coordinates": [
          23.828696395902828,
          -33.54763509565687
        ]
      }
    },
    {
      "type": "Feature",
      "properties": {
        "norad_id": 66459,
        "name": "STARLINK-35449",
        "group": "last-30-days",
        "lat": -19.697035029624544,
        "lon": 46.538809697386846,
        "alt_km": 445.0885300662694,
        "timestamp": "2025-12-13T03:42:10.035706+00:00",
        "meta_object_name": "STARLINK-35449",
        "meta_object_id": "2025-262D",
        "meta_epoch": "2025-12-12T08:00:13.999968",
        "meta_mean_motion": 15.40671918,
        "meta_eccentricity": 0.00013905,
        "meta_inclination": 43.0002,
        "meta_ra_of_asc_node": 73.8621,
        "meta_arg_of_pericenter": 289.1789,
        "meta_mean_anomaly": 163.318,
        "meta_ephemeris_type": 0,
        "meta_classification_type": "U",
        "meta_norad_cat_id": 66459,
        "meta_element_set_no": 999,
        "meta_rev_at_epoch": 557,
        "meta_bstar": 0.00099268514,
        "meta_mean_motion_dot": 0.00041349,
        "meta_mean_motion_ddot": 0,
        "tle_line1": "1 66459U 25262D   25346.33349537  .00041349  00000+0  99269-3 0  9992",
        "tle_line2": "2 66459  43.0002  73.8621 0001390 289.1789 163.3180 15.40671918  5576"
      },
      "geometry": {
        "type": "Point",
        "coordinates": [
          46.538809697386846,
          -19.697035029624544
        ]
      }
    },
    {
      "type": "Feature",
      "properties": {
        "norad_id": 66460,
        "name": "STARLINK-35424",
        "group": "last-30-days",
        "lat": -11.569868667540309,
        "lon": 56.408745067036726,
        "alt_km": 444.8667934215164,
        "timestamp": "2025-12-13T03:42:10.035720+00:00",
        "meta_object_name": "STARLINK-35424",
        "meta_object_id": "2025-262E",
        "meta_epoch": "2025-12-12T06:00:00.999648",
        "meta_mean_motion": 15.40643134,
        "meta_eccentricity": 0.00014687,
        "meta_inclination": 43.0004,
        "meta_ra_of_asc_node": 74.3119,
        "meta_arg_of_pericenter": 249.9523,
        "meta_mean_anomaly": 111.4353,
        "meta_ephemeris_type": 0,
        "meta_classification_type": "U",
        "meta_norad_cat_id": 66460,
        "meta_element_set_no": 999,
        "meta_rev_at_epoch": 555,
        "meta_bstar": 0.0019269895,
        "meta_mean_motion_dot": 0.00080896,
        "meta_mean_motion_ddot": 0,
        "tle_line1": "1 66460U 25262E   25346.25001157  .00080896  00000+0  19270-2 0  9991",
        "tle_line2": "2 66460  43.0004  74.3119 0001468 249.9523 111.4353 15.40643134  5557"
      },
      "geometry": {
        "type": "Point",
        "coordinates": [
          56.408745067036726,
          -11.569868667540309
        ]
      }
    }
  ]
}